BEIDOU 3 (C01)          
1 36287U 10001A   23029.87170088 -.00000279  00000+0  00000+0 0  9990
2 36287   1.9156  52.7180 0002840 264.2141 266.0503  1.00276576 47789
BEIDOU 5 (C06)          
1 36828U 10036A   23029.83590950 -.00000094  00000+0  00000+0 0  9994
2 36828  54.2079 174.1596 0034863 183.5254 179.7160  1.00286034 45858
BEIDOU 6 (C04)          
1 37210U 10057A   23029.91880990 -.00000110  00000+0  00000+0 0  9997
2 37210   0.9528  52.8116 0005045 175.2065  31.6881  1.00271562 44900
BEIDOU 7 (C07)          
1 37256U 10068A   23029.92752804 -.00000190  00000+0  00000+0 0  9990
2 37256  49.8050 286.9312 0023478 207.1706  74.8944  1.00296459 44414
BEIDOU 8 (C08)          
1 37384U 11013A   23029.80506635 -.00000169  00000+0  00000+0 0  9995
2 37384  60.6226  52.0196 0024866 188.1258 283.6153  1.00293424 43292
BEIDOU 9 (C09)          
1 37763U 11038A   23029.87202022 -.00000036  00000+0  00000+0 0  9996
2 37763  54.4853 176.6700 0102796 227.3278 134.2535  1.00276373 42277
BEIDOU 10 (C10)         
1 37948U 11073A   23029.98623863 -.00000148  00000+0  00000+0 0  9996
2 37948  49.9247 286.5842 0085361 220.4218  72.8776  1.00282506 41023
BEIDOU 11 (C05)         
1 38091U 12008A   23029.78372888  .00000057  00000+0  00000+0 0  9999
2 38091   2.0824  71.4934 0011887 309.0148  89.1116  1.00273670 40104
BEIDOU 12 (C11)         
1 38250U 12018A   23029.32074198 -.00000111  00000+0  00000+0 0  9992
2 38250  56.6166 346.0930 0023417 263.1325 181.5720  1.86232481 73294
BEIDOU 13 (C12)         
1 38251U 12018B   23029.39322056 -.00000111  00000+0  00000+0 0  9999
2 38251  56.5304 345.3993 0015590 266.0904 271.4137  1.86234275 73291
BEIDOU 15 (C14)         
1 38775U 12050B   23028.30465786 -.00000055  00000+0  00000+0 0  9991
2 38775  55.5399 104.1223 0012340 323.0764  39.8870  1.86231254 70651
BEIDOU 16 (C02)         
1 38953U 12059A   23029.78878444 -.00000175  00000+0  00000+0 0  9993
2 38953   1.4867  82.4127 0010064 292.4615 121.8673  1.00272660 37530
BEIDOU 17 (C31)         
1 40549U 15019A   23029.20652470 -.00000158  00000+0  00000+0 0  9993
2 40549  51.4937 310.1254 0036075 200.0003 142.1676  1.00249871 28699
BEIDOU 18 (C57)         
1 40748U 15037A   23029.53507355 -.00000113  00000+0  00000+0 0  9992
2 40748  55.7767 344.1233 0004751 345.0104 196.7384  1.86233271 51126
BEIDOU 19 (C58)         
1 40749U 15037B   23029.32183351 -.00000113  00000+0  00000+0 0  9996
2 40749  55.7814 344.1214 0007170 318.0421 214.7693  1.86232992 51111
BEIDOU 20 (C18)         
1 40938U 15053A   23029.64730194 -.00000110  00000+0  00000+0 0  9999
2 40938  51.1450 273.2645 0043384 193.1844 350.4645  1.00287374 26976
BEIDOU IGSO-6 (C13)     
1 41434U 16021A   23029.81463694 -.00000151  00000+0  00000+0 0  9999
2 41434  58.4296  50.4986 0049771 224.0293 243.6269  1.00281751 25109
BEIDOU-2 G7 (C03)       
1 41586U 16037A   23029.87757556 -.00000353  00000+0  00000+0 0  9997
2 41586   1.8886  70.5286 0008199 347.3282 137.4186  1.00268268 24415
BEIDOU-3 M1 (C19)       
1 43001U 17069A   23029.71080833 -.00000067  00000+0  00000+0 0  9999
2 43001  55.6921 104.1042 0009556 286.1023  96.0686  1.86231559 35617
BEIDOU-3 M2 (C20)       
1 43002U 17069B   23029.60520890 -.00000066  00000+0  00000+0 0  9999
2 43002  55.6914 104.1444 0007475 306.3492  47.7697  1.86231287 35599
BEIDOU-3 M3 (C27)       
1 43107U 18003A   23028.55882706 -.00000110  00000+0  00000+0 0  9994
2 43107  55.2293 344.9740 0004079  42.7729 136.3088  1.86232373 34343
BEIDOU-3 M4 (C28)       
1 43108U 18003B   23028.48466889 -.00000110  00000+0  00000+0 0  9997
2 43108  55.2246 344.9647 0004094 271.6983 260.2920  1.86230841 34340
BEIDOU-3 M5 (C21)       
1 43207U 18018A   23027.59779367 -.00000047  00000+0  00000+0 0  9991
2 43207  55.6502 104.2817 0004548 329.7943  30.2209  1.86231468 33711
BEIDOU-3 M6 (C22)       
1 43208U 18018B   23029.27526077 -.00000064  00000+0  00000+0 0  9996
2 43208  55.6506 104.2304 0007932 294.7279  65.2277  1.86231628 33744
BEIDOU-3 M7 (C29)       
1 43245U 18029A   23029.67457457 -.00000115  00000+0  00000+0 0  9995
2 43245  55.1344 342.6879 0001598 307.0304 170.7172  1.86232497 32902
BEIDOU-3 M8 (C30)       
1 43246U 18029B   23029.71538704 -.00000115  00000+0  10000-3 0  9991
2 43246  55.1316 342.7158 0004961 348.4169 203.4089  1.86232659 32897
BEIDOU IGSO-7 (C16)     
1 43539U 18057A   23024.34297848 -.00000114  00000+0  00000+0 0  9996
2 43539  55.0983 173.7753 0052320 224.9950 316.9830  1.00242822 16729
BEIDOU-3 M9 (C23)       
1 43581U 18062A   23029.54804229  .00000093  00000+0  00000+0 0  9998
2 43581  54.2194 224.3495 0002016 339.5724 311.6968  1.86231782 30633
BEIDOU-3 M10 (C24)      
1 43582U 18062B   23028.16624078  .00000081  00000+0  00000+0 0  9995
2 43582  54.2188 224.3864 0007186  30.1923 146.4406  1.86229562 30617
BEIDOU-3 M11 (C25)      
1 43602U 18067A   23029.17827147  .00000092  00000+0  00000+0 0  9999
2 43602  54.3036 222.9874 0008111  21.6525 154.6005  1.86231611 30120
BEIDOU-3 M12 (C26)      
1 43603U 18067B   23027.15951021  .00000072  00000+0  00000+0 0  9993
2 43603  54.3013 223.0225 0004949  17.8191 155.2760  1.86231550 30104
BEIDOU-3 M13 (C32)      
1 43622U 18072A   23029.69239516 -.00000067  00000+0  00000+0 0  9994
2 43622  55.6198 103.7591 0007062 278.9455 180.8705  1.86231032 29662
BEIDOU-3 M14 (C33)      
1 43623U 18072B   23029.43440003 -.00000066  00000+0  00000+0 0  9991
2 43623  55.6219 103.7601 0003849 301.6101  75.4903  1.86231415 29664
BEIDOU-3 M15 (C34)      
1 43647U 18078A   23029.02465525 -.00000113  00000+0  10000-3 0  9992
2 43647  55.0305 342.8505 0008087 358.0785 359.0924  1.86226775 29153
BEIDOU-3 M16 (C35)      
1 43648U 18078B   23029.44632514 -.00000114  00000+0  00000+0 0  9999
2 43648  55.0262 342.8411 0004765   1.9025 186.5162  1.86232119 29181
BEIDOU-3 G1 (C59)       
1 43683U 18085A   23029.79976723 -.00000278  00000+0  00000+0 0  9998
2 43683   1.0902 143.9902 0001902  37.4701  15.1667  1.00268747 15681
BEIDOU-3 M17 (C36)      
1 43706U 18093A   23029.87332730  .00000095  00000+0  00000+0 0  9992
2 43706  54.2989 224.2408 0006525 289.2123  85.0248  1.86231675 28541
BEIDOU-3 M18 (C37)      
1 43707U 18093B   23029.79143850  .00000095  00000+0  00000+0 0  9997
2 43707  54.3017 224.2343 0006745 327.8111  82.9707  1.86232241 28549
BEIDOU-3 IGSO-1 (C38)   
1 44204U 19023A   23029.80869944 -.00000209  00000+0  00000+0 0  9993
2 44204  56.8940  50.5504 0021242 207.6966 279.3415  1.00294433 13982
BEIDOU-2 G8             
1 44231U 19027A   23029.87248536 -.00000249  00000+0  00000+0 0  9996
2 44231   1.4144  80.7792 0005421 139.0797   7.4514  1.00265472 13698
BEIDOU-3 IGSO-2 (C39)   
1 44337U 19035A   23029.79979652 -.00000110  00000+0  00000+0 0  9990
2 44337  55.1393 169.7119 0029437 193.2455 172.1320  1.00288605 13322
BEIDOU-3 M23 (C45)      
1 44542U 19061A   23029.78868626  .00000095  00000+0  00000+0 0  9995
2 44542  54.5285 224.4289 0008571   3.8889 356.1437  1.86231416 22801
BEIDOU-3 M24 (C46)      
1 44543U 19061B   23029.91935443  .00000096  00000+0  00000+0 0  9994
2 44543  54.5264 224.3944 0005451   2.9438 356.2779  1.86231627 22792
BEIDOU-3 IGSO-3         
1 44709U 19073A   23029.97318485 -.00000191  00000+0  00000+0 0  9995
2 44709  56.8974 294.0276 0028553 179.6815 123.0801  1.00293353 12065
BEIDOU-3 M21            
1 44793U 19078A   23029.09159792 -.00000113  00000+0  10000-3 0  9999
2 44793  54.8787 342.8417 0006643   4.5539 352.2248  1.86232105 21649
BEIDOU-3 M22            
1 44794U 19078B   23029.48556123 -.00000115  00000+0  00000+0 0  9999
2 44794  54.8520 342.8149 0005131 356.3551 176.6155  1.86232549 21658
BEIDOU-3 M19            
1 44864U 19090A   23029.35524100 -.00000065  00000+0  00000+0 0  9991
2 44864  55.5535 103.9691 0017926 269.3840  10.4161  1.86231504 21233
BEIDOU-3 M20            
1 44865U 19090B   23027.19177993 -.00000042  00000+0  00000+0 0  9991
2 44865  55.5542 104.0745 0015216 282.0152  77.1326  1.86231792 21166
BEIDOU-3 G2             
1 45344U 20017A   23029.42938958 -.00000139  00000+0  00000+0 0  9996
2 45344   1.9880   4.2671 0000859 282.8745  75.8213  1.00270117 10877
BEIDOU-3 G3             
1 45807U 20040A   23029.87757556 -.00000350  00000+0  00000+0 0  9993
2 45807   0.9511 314.0913 0008312 340.1661 261.0570  1.00268736  9696
